{
    "links": {
        "self": "http://www.neowsapp.com/rest/v1/neo/3838931?api_key=iIulBulltgU6a56xZRHN4H3l9WmuAYTsLGpBGhQ2"
    },
    "id": "3838931",
    "neo_reference_id": "3838931",
    "name": "(2019 EZ1)",
    "designation": "2019 EZ1",
    "nasa_jpl_url": "http://ssd.jpl.nasa.gov/sbdb.cgi?sstr=3838931",
    "absolute_magnitude_h": 26.0,
    "estimated_diameter": {
        "kilometers": {
            "estimated_diameter_min": 0.0167708462,
            "estimated_diameter_max": 0.0375007522
        },
        "meters": {
            "estimated_diameter_min": 16.7708462163,
            "estimated_diameter_max": 37.5007521798
        },
        "miles": {
            "estimated_diameter_min": 0.0104209175,
            "estimated_diameter_max": 0.0233018799
        },
        "feet": {
            "estimated_diameter_min": 55.0224631002,
            "estimated_diameter_max": 123.0339677816
        }
    },
    "is_potentially_hazardous_asteroid": false,
    "close_approach_data": [
        {
            "close_approach_date": "2019-03-04",
            "close_approach_date_full": "2019-Mar-04 14:46",
            "epoch_date_close_approach": 1551710760000,
            "relative_velocity": {
                "kilometers_per_second": "12.3848830632",
                "kilometers_per_hour": "44585.5790274156",
                "miles_per_hour": "27703.7449240072"
            },
            "miss_distance": {
                "astronomical": "0.0222052184",
                "lunar": "8.6378299576",
                "kilometers": "3321853.375524808",
                "miles": "2064103.9737780304"
            },
            "orbiting_body": "Earth"
        },
        {
            "close_approach_date": "2020-07-29",
            "close_approach_date_full": "2020-Jul-29 16:18",
            "epoch_date_close_approach": 1596039480000,
            "relative_velocity": {
                "kilometers_per_second": "2.3646576391",
                "kilometers_per_hour": "8512.7675005943",
                "miles_per_hour": "5289.5026727998"
            },
            "miss_distance": {
                "astronomical": "1.9594554787",
                "lunar": "762.2281812143",
                "kilometers": "293130365.973350369",
                "miles": "182142763.3436743322"
            },
            "orbiting_body": "Juptr"
        },
        {
            "close_approach_date": "2097-03-31",
            "close_approach_date_full": "2097-Mar-31 05:10",
            "epoch_date_close_approach": 4015545000000,
            "relative_velocity": {
                "kilometers_per_second": "23.4211142571",
                "kilometers_per_hour": "84316.0113256187",
                "miles_per_hour": "52390.6904817435"
            },
            "miss_distance": {
                "astronomical": "0.375354054",
                "lunar": "146.012727006",
                "kilometers": "56152166.97426498",
                "miles": "34891338.624937524"
            },
            "orbiting_body": "Earth"
        }
    ],
    "orbital_data": {
        "orbit_id": "2",
        "orbit_determination_date": "2019-03-19 07:19:33",
        "first_observation_date": "2019-03-09",
        "last_observation_date": "2019-03-15",
        "data_arc_in_days": 6,
        "observations_used": 43,
        "orbit_uncertainty": "8",
        "minimum_orbit_intersection": ".012016",
        "jupiter_tisserand_invariant": "3.583",
        "epoch_osculation": "2458552.5",
        "eccentricity": ".5731373567554136",
        "semi_major_axis": "2.032998074889885",
        "inclination": "2.525995194980728",
        "ascending_node_longitude": "356.9301033576351",
        "orbital_period": "1058.775487221733",
        "perihelion_distance": ".867810931958652",
        "perihelion_argument": "115.109960514752",
        "aphelion_distance": "3.198185217821118",
        "perihelion_time": "2458510.750222364728",
        "mean_anomaly": "14.1955684940695",
        "mean_motion": ".3400154275810197",
        "equinox": "J2000",
        "orbit_class": {
            "orbit_class_type": "APO",
            "orbit_class_description": "Near-Earth asteroid orbits which cross the Earth’s orbit similar to that of 1862 Apollo",
            "orbit_class_range": "a (semi-major axis) > 1.0 AU; q (perihelion) < 1.017 AU"
        }
    },
    "is_sentry_object": false
}